[{"OBJECT_NAME":"KUIPER-00122","OBJECT_ID":"2025-228E","EPOCH":"2026-03-14T22:13:40.920384","MEAN_MOTION":14.79919114,"ECCENTRICITY":8.601e-5,"INCLINATION":51.8995,"RA_OF_ASC_NODE":339.9149,"ARG_OF_PERICENTER":108.2673,"MEAN_ANOMALY":251.8383,"EPHEMERIS_TYPE":0,"CLASSIFICATION_TYPE":"U","NORAD_CAT_ID":65951,"ELEMENT_SET_NO":999,"REV_AT_EPOCH":2397,"BSTAR":0.0001228316,"MEAN_MOTION_DOT":7.15e-6,"MEAN_MOTION_DDOT":0},{"OBJECT_NAME":"KUIPER-00123","OBJECT_ID":"2025-228F","EPOCH":"2026-03-15T00:39:38.299968","MEAN_MOTION":14.79924418,"ECCENTRICITY":8.85e-5,"INCLINATION":51.8976,"RA_OF_ASC_NODE":339.4905,"ARG_OF_PERICENTER":88.2401,"MEAN_ANOMALY":271.8663,"EPHEMERIS_TYPE":0,"CLASSIFICATION_TYPE":"U","NORAD_CAT_ID":65952,"ELEMENT_SET_NO":999,"REV_AT_EPOCH":2398,"BSTAR":-0.00087680349,"MEAN_MOTION_DOT":-6.897e-5,"MEAN_MOTION_DDOT":0},{"OBJECT_NAME":"KUIPER-00124","OBJECT_ID":"2025-228G","EPOCH":"2026-03-14T23:14:03.693984","MEAN_MOTION":14.79911374,"ECCENTRICITY":7.308e-5,"INCLINATION":51.8998,"RA_OF_ASC_NODE":332.2393,"ARG_OF_PERICENTER":98.7841,"MEAN_ANOMALY":261.3204,"EPHEMERIS_TYPE":0,"CLASSIFICATION_TYPE":"U","NORAD_CAT_ID":65953,"ELEMENT_SET_NO":999,"REV_AT_EPOCH":2408,"BSTAR":0.00041989289,"MEAN_MOTION_DOT":2.98e-5,"MEAN_MOTION_DDOT":0},{"OBJECT_NAME":"KUIPER-00125","OBJECT_ID":"2025-228H","EPOCH":"2026-03-14T21:59:57.735744","MEAN_MOTION":14.79939801,"ECCENTRICITY":7.57e-5,"INCLINATION":51.9012,"RA_OF_ASC_NODE":317.4918,"ARG_OF_PERICENTER":92.1652,"MEAN_ANOMALY":267.9397,"EPHEMERIS_TYPE":0,"CLASSIFICATION_TYPE":"U","NORAD_CAT_ID":65954,"ELEMENT_SET_NO":999,"REV_AT_EPOCH":2428,"BSTAR":0.00065178115,"MEAN_MOTION_DOT":4.752e-5,"MEAN_MOTION_DDOT":0},{"OBJECT_NAME":"KUIPER-00126","OBJECT_ID":"2025-228J","EPOCH":"2026-03-14T22:17:21.919488","MEAN_MOTION":14.80008689,"ECCENTRICITY":9.397e-5,"INCLINATION":51.9018,"RA_OF_ASC_NODE":337.4357,"ARG_OF_PERICENTER":103.8807,"MEAN_ANOMALY":256.226,"EPHEMERIS_TYPE":0,"CLASSIFICATION_TYPE":"U","NORAD_CAT_ID":65955,"ELEMENT_SET_NO":999,"REV_AT_EPOCH":2400,"BSTAR":0.00074748664,"MEAN_MOTION_DOT":5.492e-5,"MEAN_MOTION_DDOT":0},{"OBJECT_NAME":"KUIPER-00127","OBJECT_ID":"2025-228K","EPOCH":"2026-03-14T23:13:36.350112","MEAN_MOTION":14.76350869,"ECCENTRICITY":0.00011168,"INCLINATION":51.8995,"RA_OF_ASC_NODE":328.8221,"ARG_OF_PERICENTER":194.7526,"MEAN_ANOMALY":165.3403,"EPHEMERIS_TYPE":0,"CLASSIFICATION_TYPE":"U","NORAD_CAT_ID":65956,"ELEMENT_SET_NO":999,"REV_AT_EPOCH":2413,"BSTAR":0.0004352009,"MEAN_MOTION_DOT":2.835e-5,"MEAN_MOTION_DDOT":0},{"OBJECT_NAME":"KUIPER-00128","OBJECT_ID":"2025-228L","EPOCH":"2026-03-14T23:17:53.606112","MEAN_MOTION":14.79928849,"ECCENTRICITY":7.118e-5,"INCLINATION":51.9019,"RA_OF_ASC_NODE":329.7677,"ARG_OF_PERICENTER":108.1027,"MEAN_ANOMALY":252.0013,"EPHEMERIS_TYPE":0,"CLASSIFICATION_TYPE":"U","NORAD_CAT_ID":65957,"ELEMENT_SET_NO":999,"REV_AT_EPOCH":2411,"BSTAR":0.00076756723,"MEAN_MOTION_DOT":5.635e-5,"MEAN_MOTION_DDOT":0},{"OBJECT_NAME":"KUIPER-00129","OBJECT_ID":"2025-228M","EPOCH":"2026-03-14T22:37:17.488992","MEAN_MOTION":14.79898822,"ECCENTRICITY":0.00010021,"INCLINATION":51.9,"RA_OF_ASC_NODE":324.8778,"ARG_OF_PERICENTER":90.6108,"MEAN_ANOMALY":269.4969,"EPHEMERIS_TYPE":0,"CLASSIFICATION_TYPE":"U","NORAD_CAT_ID":65958,"ELEMENT_SET_NO":999,"REV_AT_EPOCH":2418,"BSTAR":0.00074083909,"MEAN_MOTION_DOT":5.426e-5,"MEAN_MOTION_DDOT":0},{"OBJECT_NAME":"KUIPER-00130","OBJECT_ID":"2025-228N","EPOCH":"2026-03-14T23:21:49.819392","MEAN_MOTION":14.79906968,"ECCENTRICITY":7.981e-5,"INCLINATION":51.9038,"RA_OF_ASC_NODE":327.2487,"ARG_OF_PERICENTER":74.9374,"MEAN_ANOMALY":285.1677,"EPHEMERIS_TYPE":0,"CLASSIFICATION_TYPE":"U","NORAD_CAT_ID":65959,"ELEMENT_SET_NO":999,"REV_AT_EPOCH":1444,"BSTAR":0.00048888442,"MEAN_MOTION_DOT":3.505e-5,"MEAN_MOTION_DDOT":0},{"OBJECT_NAME":"KUIPER-00134","OBJECT_ID":"2025-228P","EPOCH":"2026-03-15T07:14:41.070336","MEAN_MOTION":15.38825066,"ECCENTRICITY":0.00049269,"INCLINATION":51.8729,"RA_OF_ASC_NODE":293.1909,"ARG_OF_PERICENTER":344.1457,"MEAN_ANOMALY":15.9376,"EPHEMERIS_TYPE":0,"CLASSIFICATION_TYPE":"U","NORAD_CAT_ID":65960,"ELEMENT_SET_NO":999,"REV_AT_EPOCH":2465,"BSTAR":0.0011004666,"MEAN_MOTION_DOT":0.00042784,"MEAN_MOTION_DDOT":0},{"OBJECT_NAME":"KUIPER-00135","OBJECT_ID":"2025-228Q","EPOCH":"2026-03-15T00:10:30.601632","MEAN_MOTION":14.79911834,"ECCENTRICITY":7.36e-5,"INCLINATION":51.9034,"RA_OF_ASC_NODE":327.1609,"ARG_OF_PERICENTER":108.3895,"MEAN_ANOMALY":251.7148,"EPHEMERIS_TYPE":0,"CLASSIFICATION_TYPE":"U","NORAD_CAT_ID":65961,"ELEMENT_SET_NO":999,"REV_AT_EPOCH":2415,"BSTAR":0.0007505546,"MEAN_MOTION_DOT":5.502e-5,"MEAN_MOTION_DDOT":0},{"OBJECT_NAME":"KUIPER-00136","OBJECT_ID":"2025-228R","EPOCH":"2026-03-14T21:48:25.128288","MEAN_MOTION":14.79920354,"ECCENTRICITY":0.00013494,"INCLINATION":51.901,"RA_OF_ASC_NODE":325.0659,"ARG_OF_PERICENTER":130.7298,"MEAN_ANOMALY":229.3782,"EPHEMERIS_TYPE":0,"CLASSIFICATION_TYPE":"U","NORAD_CAT_ID":65962,"ELEMENT_SET_NO":999,"REV_AT_EPOCH":2417,"BSTAR":-1.1368492e-5,"MEAN_MOTION_DOT":-3.08e-6,"MEAN_MOTION_DDOT":0},{"OBJECT_NAME":"KUIPER-00137","OBJECT_ID":"2025-228S","EPOCH":"2026-03-13T05:20:13.917984","MEAN_MOTION":14.7871432,"ECCENTRICITY":7.852e-5,"INCLINATION":51.9051,"RA_OF_ASC_NODE":329.9797,"ARG_OF_PERICENTER":165.8059,"MEAN_ANOMALY":194.2925,"EPHEMERIS_TYPE":0,"CLASSIFICATION_TYPE":"U","NORAD_CAT_ID":65963,"ELEMENT_SET_NO":999,"REV_AT_EPOCH":2396,"BSTAR":0.009147771,"MEAN_MOTION_DOT":0.00068222,"MEAN_MOTION_DDOT":0},{"OBJECT_NAME":"KUIPER-00138","OBJECT_ID":"2025-228T","EPOCH":"2026-03-14T21:07:32.875104","MEAN_MOTION":14.79918065,"ECCENTRICITY":0.00010834,"INCLINATION":51.8999,"RA_OF_ASC_NODE":320.1414,"ARG_OF_PERICENTER":82.7672,"MEAN_ANOMALY":277.3413,"EPHEMERIS_TYPE":0,"CLASSIFICATION_TYPE":"U","NORAD_CAT_ID":65964,"ELEMENT_SET_NO":999,"REV_AT_EPOCH":2424,"BSTAR":0.00068705881,"MEAN_MOTION_DOT":5.018e-5,"MEAN_MOTION_DDOT":0},{"OBJECT_NAME":"KUIPER-00140","OBJECT_ID":"2025-228U","EPOCH":"2026-03-14T22:40:59.530944","MEAN_MOTION":14.79913237,"ECCENTRICITY":9.697e-5,"INCLINATION":51.8992,"RA_OF_ASC_NODE":322.4367,"ARG_OF_PERICENTER":101.91,"MEAN_ANOMALY":258.1972,"EPHEMERIS_TYPE":0,"CLASSIFICATION_TYPE":"U","NORAD_CAT_ID":65965,"ELEMENT_SET_NO":999,"REV_AT_EPOCH":2421,"BSTAR":0.00067938742,"MEAN_MOTION_DOT":4.959e-5,"MEAN_MOTION_DDOT":0},{"OBJECT_NAME":"KUIPER-00141","OBJECT_ID":"2025-228V","EPOCH":"2026-03-14T21:11:21.237216","MEAN_MOTION":14.79923445,"ECCENTRICITY":8.328e-5,"INCLINATION":51.9028,"RA_OF_ASC_NODE":317.7251,"ARG_OF_PERICENTER":114.753,"MEAN_ANOMALY":245.3519,"EPHEMERIS_TYPE":0,"CLASSIFICATION_TYPE":"U","NORAD_CAT_ID":65966,"ELEMENT_SET_NO":999,"REV_AT_EPOCH":2427,"BSTAR":0.00071349936,"MEAN_MOTION_DOT":5.221e-5,"MEAN_MOTION_DDOT":0}]
